[{"OBJECT_NAME":"STARLINK-34798","OBJECT_ID":"2025-165H","EPOCH":"2026-03-09T18:05:23.973216","MEAN_MOTION":15.05644548,"ECCENTRICITY":0.00011549,"INCLINATION":97.6023,"RA_OF_ASC_NODE":147.3485,"ARG_OF_PERICENTER":92.2896,"MEAN_ANOMALY":267.8463,"EPHEMERIS_TYPE":0,"CLASSIFICATION_TYPE":"U","NORAD_CAT_ID":65063,"ELEMENT_SET_NO":999,"REV_AT_EPOCH":3480,"BSTAR":0.00048937741,"MEAN_MOTION_DOT":7.006e-5,"MEAN_MOTION_DDOT":0},{"OBJECT_NAME":"MINOTAUR 4 R\/B","OBJECT_ID":"2020-046E","EPOCH":"2026-03-09T23:21:28.488960","MEAN_MOTION":15.06543892,"ECCENTRICITY":0.00095926,"INCLINATION":53.9792,"RA_OF_ASC_NODE":306.0413,"ARG_OF_PERICENTER":86.078,"MEAN_ANOMALY":274.1318,"EPHEMERIS_TYPE":0,"CLASSIFICATION_TYPE":"U","NORAD_CAT_ID":45877,"ELEMENT_SET_NO":999,"REV_AT_EPOCH":23396,"BSTAR":0.00016618262,"MEAN_MOTION_DOT":2.204e-5,"MEAN_MOTION_DDOT":0}]
